[
    {
        "Altitude(m)": 611967.189510857,
        "Argument of Periapsis(deg)": 0.0,
        "Eccentricity": 0.0,
        "Inclination(deg)": 60.0,
        "Latitude(deg)": 59.14019364300461,
        "Longitude(deg)": 166.09223335915507,
        "Mean Anomaly(deg)": 98.18180000000002,
        "RAAN(deg)": 160.0,
        "Satellite Name": "Test1 710",
        "Satellite Number": 710,
        "Semi-Major Axis(m)": 6980739.136638005,
        "Time(s)": 0
    },
    {
        "Altitude(m)": 611934.3887189787,
        "Argument of Periapsis(deg)": 0.00010418945913296404,
        "Eccentricity": 0.0,
        "Inclination(deg)": 60.0,
        "Latitude(deg)": 58.98655375785165,
        "Longitude(deg)": 167.21547903446918,
        "Mean Anomaly(deg)": 98.80190614546183,
        "RAAN(deg)": 159.99957995086024,
        "Satellite Name": "Test1 710",
        "Satellite Number": 710,
        "Semi-Major Axis(m)": 6980739.136638005,
        "Time(s)": 10
    }
]